CTC1_L_00063001-01
1 10000U 25312YM  26075.70030093  .00000000  00000+0  00000-0 0  9995
2 10000  70.0000   0.0000 0000000   0.0000   0.0000 14.98995063    15
CTC1_L_00063001-02
1 10001U 24311AD  26075.70030093  .00000000  00000+0  00000-0 0  9994
2 10001  70.0000   0.0000 0000000   0.0000  90.0000 14.98995063    15
CTC1_L_00063001-03
1 10002U 25285AC  26075.70030093  .00000000  00000+0  00000-0 0  9996
2 10002  70.0000   0.0000 0000000   0.0000 180.0000 14.98995063    16
CTC1_L_00063001-04
1 10003U 26675HW  26075.70030093  .00000000  00000+0  00000-0 0  9991
2 10003  70.0000   0.0000 0000000   0.0000 270.0000 14.98995063    17
CTC1_L_00063002-01
1 10004U 22200JK  26075.70030093  .00000000  00000+0  00000-0 0  9992
2 10004  70.0000  12.0000 0000000   0.0000  12.0000 14.98995063    15
CTC1_L_00063002-02
1 10005U 26120AF  26075.70030093  .00000000  00000+0  00000-0 0  9998
2 10005  70.0000  12.0000 0000000   0.0000 102.0000 14.98995063    16
CTC1_L_00063002-03
1 10006U 25855XB  26075.70030093  .00000000  00000+0  00000-0 0  9993
2 10006  70.0000  12.0000 0000000   0.0000 192.0000 14.98995063    16
CTC1_L_00063002-04
1 10007U 23211IB  26075.70030093  .00000000  00000+0  00000-0 0  9998
2 10007  70.0000  12.0000 0000000   0.0000 282.0000 14.98995063    17
CTC1_L_00063003-01
1 10008U 23618VQ  26075.70030093  .00000000  00000+0  00000-0 0  9990
2 10008  70.0000  24.0000 0000000   0.0000  24.0000 14.98995063    15
CTC1_L_00063003-02
1 10009U 24811ZG  26075.70030093  .00000000  00000+0  00000-0 0  9997
2 10009  70.0000  24.0000 0000000   0.0000 114.0000 14.98995063    16
CTC1_L_00063003-03
1 10010U 23106YE  26075.70030093  .00000000  00000+0  00000-0 0  9995
2 10010  70.0000  24.0000 0000000   0.0000 204.0000 14.98995063    18
CTC1_L_00063003-04
1 10011U 24193DF  26075.70030093  .00000000  00000+0  00000-0 0  9993
2 10011  70.0000  24.0000 0000000   0.0000 294.0000 14.98995063    18
CTC1_L_00063004-01
1 10012U 23551XE  26075.70030093  .00000000  00000+0  00000-0 0  9991
2 10012  70.0000  36.0000 0000000   0.0000  36.0000 14.98995063    16
CTC1_L_00063004-02
1 10013U 23053ER  26075.70030093  .00000000  00000+0  00000-0 0  9999
2 10013  70.0000  36.0000 0000000   0.0000 126.0000 14.98995063    17
CTC1_L_00063004-03
1 10014U 26536WT  26075.70030093  .00000000  00000+0  00000-0 0  9999
2 10014  70.0000  36.0000 0000000   0.0000 216.0000 14.98995063    18
CTC1_L_00063004-04
1 10015U 22074QF  26075.70030093  .00000000  00000+0  00000-0 0  9993
2 10015  70.0000  36.0000 0000000   0.0000 306.0000 14.98995063    19
CTC1_L_00063005-01
1 10016U 24852EH  26075.70030093  .00000000  00000+0  00000-0 0  9990
2 10016  70.0000  48.0000 0000000   0.0000  48.0000 14.98995063    16
CTC1_L_00063005-02
1 10017U 25237SS  26075.70030093  .00000000  00000+0  00000-0 0  9999
2 10017  70.0000  48.0000 0000000   0.0000 138.0000 14.98995063    17
CTC1_L_00063005-03
1 10018U 22594CT  26075.70030093  .00000000  00000+0  00000-0 0  9993
2 10018  70.0000  48.0000 0000000   0.0000 228.0000 14.98995063    18
CTC1_L_00063005-04
1 10019U 22097YT  26075.70030093  .00000000  00000+0  00000-0 0  9992
2 10019  70.0000  48.0000 0000000   0.0000 318.0000 14.98995063    19
CTC1_L_00063006-01
1 10020U 22443DQ  26075.70030093  .00000000  00000+0  00000-0 0  9999
2 10020  70.0000  60.0000 0000000   0.0000  60.0000 14.98995063    19
CTC1_L_00063006-02
1 10021U 22992WX  26075.70030093  .00000000  00000+0  00000-0 0  9999
2 10021  70.0000  60.0000 0000000   0.0000 150.0000 14.98995063    10
CTC1_L_00063006-03
1 10022U 22806IN  26075.70030093  .00000000  00000+0  00000-0 0  9994
2 10022  70.0000  60.0000 0000000   0.0000 240.0000 14.98995063    11
CTC1_L_00063006-04
1 10023U 23161WR  26075.70030093  .00000000  00000+0  00000-0 0  9990
2 10023  70.0000  60.0000 0000000   0.0000 330.0000 14.98995063    12
CTC1_L_00063007-01
1 10024U 25146CA  26075.70030093  .00000000  00000+0  00000-0 0  9996
2 10024  70.0000  72.0000 0000000   0.0000  72.0000 14.98995063    19
CTC1_L_00063007-02
1 10025U 22284XM  26075.70030093  .00000000  00000+0  00000-0 0  9997
2 10025  70.0000  72.0000 0000000   0.0000 162.0000 14.98995063    10
CTC1_L_00063007-03
1 10026U 24259LX  26075.70030093  .00000000  00000+0  00000-0 0  9992
2 10026  70.0000  72.0000 0000000   0.0000 252.0000 14.98995063    11
CTC1_L_00063007-04
1 10027U 25035VH  26075.70030093  .00000000  00000+0  00000-0 0  9996
2 10027  70.0000  72.0000 0000000   0.0000 342.0000 14.98995063    12
CTC1_L_00063008-01
1 10028U 23957HZ  26075.70030093  .00000000  00000+0  00000-0 0  9998
2 10028  70.0000  84.0000 0000000   0.0000  84.0000 14.98995063    19
CTC1_L_00063008-02
1 10029U 22321YM  26075.70030093  .00000000  00000+0  00000-0 0  9993
2 10029  70.0000  84.0000 0000000   0.0000 174.0000 14.98995063    10
CTC1_L_00063008-03
1 10030U 26877NV  26075.70030093  .00000000  00000+0  00000-0 0  9995
2 10030  70.0000  84.0000 0000000   0.0000 264.0000 14.98995063    12
CTC1_L_00063008-04
1 10031U 26933AC  26075.70030093  .00000000  00000+0  00000-0 0  9999
2 10031  70.0000  84.0000 0000000   0.0000 354.0000 14.98995063    13
CTC1_L_00063009-01
1 10032U 24553WI  26075.70030093  .00000000  00000+0  00000-0 0  9996
2 10032  70.0000  96.0000 0000000   0.0000  96.0000 14.98995063    10
CTC1_L_00063009-02
1 10033U 26368TC  26075.70030093  .00000000  00000+0  00000-0 0  9993
2 10033  70.0000  96.0000 0000000   0.0000 186.0000 14.98995063    11
CTC1_L_00063009-03
1 10034U 22301VS  26075.70030093  .00000000  00000+0  00000-0 0  9997
2 10034  70.0000  96.0000 0000000   0.0000 276.0000 14.98995063    12
CTC1_L_00063009-04
1 10035U 25639TF  26075.70030093  .00000000  00000+0  00000-0 0  9995
2 10035  70.0000  96.0000 0000000   0.0000   6.0000 14.98995063    14
CTC1_L_00063010-01
1 10036U 22510XE  26075.70030093  .00000000  00000+0  00000-0 0  9991
2 10036  70.0000 108.0000 0000000   0.0000 108.0000 14.98995063    12
CTC1_L_00063010-02
1 10037U 22455LU  26075.70030093  .00000000  00000+0  00000-0 0  9990
2 10037  70.0000 108.0000 0000000   0.0000 198.0000 14.98995063    12
CTC1_L_00063010-03
1 10038U 22028KV  26075.70030093  .00000000  00000+0  00000-0 0  9997
2 10038  70.0000 108.0000 0000000   0.0000 288.0000 14.98995063    13
CTC1_L_00063010-04
1 10039U 22205RD  26075.70030093  .00000000  00000+0  00000-0 0  9995
2 10039  70.0000 108.0000 0000000   0.0000  18.0000 14.98995063    15
CTC1_L_00063011-01
1 10040U 24924SQ  26075.70030093  .00000000  00000+0  00000-0 0  9997
2 10040  70.0000 120.0000 0000000   0.0000 120.0000 14.98995063    15
CTC1_L_00063011-02
1 10041U 23514WC  26075.70030093  .00000000  00000+0  00000-0 0  9992
2 10041  70.0000 120.0000 0000000   0.0000 210.0000 14.98995063    16
CTC1_L_00063011-03
1 10042U 26242NK  26075.70030093  .00000000  00000+0  00000-0 0  9994
2 10042  70.0000 120.0000 0000000   0.0000 300.0000 14.98995063    17
CTC1_L_00063011-04
1 10043U 25193MX  26075.70030093  .00000000  00000+0  00000-0 0  9999
2 10043  70.0000 120.0000 0000000   0.0000  30.0000 14.98995063    18
CTC1_L_00063012-01
1 10044U 25295EY  26075.70030093  .00000000  00000+0  00000-0 0  9993
2 10044  70.0000 132.0000 0000000   0.0000 132.0000 14.98995063    15
CTC1_L_00063012-02
1 10045U 23758VQ  26075.70030093  .00000000  00000+0  00000-0 0  9996
2 10045  70.0000 132.0000 0000000   0.0000 222.0000 14.98995063    16
CTC1_L_00063012-03
1 10046U 25304AR  26075.70030093  .00000000  00000+0  00000-0 0  9996
2 10046  70.0000 132.0000 0000000   0.0000 312.0000 14.98995063    17
CTC1_L_00063012-04
1 10047U 25854AE  26075.70030093  .00000000  00000+0  00000-0 0  9997
2 10047  70.0000 132.0000 0000000   0.0000  42.0000 14.98995063    18
CTC1_L_00063013-01
1 10048U 23449LO  26075.70030093  .00000000  00000+0  00000-0 0  9996
2 10048  70.0000 144.0000 0000000   0.0000 144.0000 14.98995063    15
CTC1_L_00063013-02
1 10049U 23865VP  26075.70030093  .00000000  00000+0  00000-0 0  9999
2 10049  70.0000 144.0000 0000000   0.0000 234.0000 14.98995063    16
CTC1_L_00063013-03
1 10050U 22505I   26075.70030093  .00000000  00000+0  00000-0 0  9991
2 10050  70.0000 144.0000 0000000   0.0000 324.0000 14.98995063    18
CTC1_L_00063013-04
1 10051U 22969GY  26075.70030093  .00000000  00000+0  00000-0 0  9996
2 10051  70.0000 144.0000 0000000   0.0000  54.0000 14.98995063    19
CTC1_L_00063014-01
1 10052U 25647BE  26075.70030093  .00000000  00000+0  00000-0 0  9993
2 10052  70.0000 156.0000 0000000   0.0000 156.0000 14.98995063    16
CTC1_L_00063014-02
1 10053U 26741KA  26075.70030093  .00000000  00000+0  00000-0 0  9990
2 10053  70.0000 156.0000 0000000   0.0000 246.0000 14.98995063    17
CTC1_L_00063014-03
1 10054U 23029T   26075.70030093  .00000000  00000+0  00000-0 0  9997
2 10054  70.0000 156.0000 0000000   0.0000 336.0000 14.98995063    18
CTC1_L_00063014-04
1 10055U 24542YQ  26075.70030093  .00000000  00000+0  00000-0 0  9999
2 10055  70.0000 156.0000 0000000   0.0000  66.0000 14.98995063    19
CTC1_L_00063015-01
1 10056U 22546RG  26075.70030093  .00000000  00000+0  00000-0 0  9992
2 10056  70.0000 168.0000 0000000   0.0000 168.0000 14.98995063    16
CTC1_L_00063015-02
1 10057U 22028PH  26075.70030093  .00000000  00000+0  00000-0 0  9998
2 10057  70.0000 168.0000 0000000   0.0000 258.0000 14.98995063    17
CTC1_L_00063015-03
1 10058U 24009BF  26075.70030093  .00000000  00000+0  00000-0 0  9990
2 10058  70.0000 168.0000 0000000   0.0000 348.0000 14.98995063    18
CTC1_L_00063015-04
1 10059U 23733WR  26075.70030093  .00000000  00000+0  00000-0 0  9994
2 10059  70.0000 168.0000 0000000   0.0000  78.0000 14.98995063    19
CTC1_L_00063016-01
1 10060U 25956ES  26075.70030093  .00000000  00000+0  00000-0 0  9995
2 10060  70.0000 180.0000 0000000   0.0000 180.0000 14.98995063    19
CTC1_L_00063016-02
1 10061U 25558TG  26075.70030093  .00000000  00000+0  00000-0 0  9994
2 10061  70.0000 180.0000 0000000   0.0000 270.0000 14.98995063    10
